#aV2021  1 22  0  0  0.00000000     288 DD+AD WGS84 FIT  NGA
## 2141 432000.00000000   300.00000000 59236 0.0000000000000
+   32     1  2  3  4  5  6  7  8  9 10 11 12 13 14 15 16 17
+         18 19 20 21 22 23 24 25 26 27 28 29 30 31 32  0  0
+          0  0  0  0  0  0  0  0  0  0  0  0  0  0  0  0  0
+          0  0  0  0  0  0  0  0  0  0  0  0  0  0  0  0  0
+          0  0  0  0  0  0  0  0  0  0  0  0  0  0  0  0  0
++         2  2  2  2  2  2  2  2  2  2  2  2  2  2  2  2  2
++         2  2  2  2  2  2  2  2  2  2  2  2  2  2  2  0  0
++         0  0  0  0  0  0  0  0  0  0  0  0  0  0  0  0  0
++         0  0  0  0  0  0  0  0  0  0  0  0  0  0  0  0  0
++         0  0  0  0  0  0  0  0  0  0  0  0  0  0  0  0  0
%c cc cc ccc ccc cccc cccc cccc cccc ccccc ccccc ccccc ccccc
%c cc cc ccc ccc cccc cccc cccc cccc ccccc ccccc ccccc ccccc
%f  0.0000000  0.000000000  0.00000000000  0.000000000000000
%f  0.0000000  0.000000000  0.00000000000  0.000000000000000
%i    0    0    0    0      0      0      0      0         0
%i    0    0    0    0      0      0      0      0         0
/*      NGA, ST. LOUIS,MO.                                  
/*   EPHEMERIS COMPUTED FROM 2 DAYS OF DATA                 
/*   EPOCHA v5 SMOOTHER                                     
/*   G2139 IERS2010 SATAF SATAPC                            
*  2021  1 22  7  5  0.00000000
P  1  11520.538489  13525.728683 -20092.646171    775.908690                    
V  1 -24826.571200    405.833660 -13803.816619     -0.067555                    
P  2  12978.555241 -14188.392078  18987.496101   -568.662903                    
V  2  22780.191325   -326.719229 -16380.644384     -0.041240                    
P  3  13030.087251  23207.335854   -353.557537    -62.689807                    
V  3  -2337.972226    936.070440 -31850.519439     -0.099331                    
P  4   3520.122568  18742.974913  18467.173399   -174.606119                    
V  4 -13741.010159  19082.487762 -16800.563102     -0.028956                    
P  5    974.473529 -20570.621424  16521.958946    -31.640680                    
V  5  13037.117235  17037.423664  20437.366209     -0.010109                    
P  6  24180.741840  -6110.159156   9268.944414     -4.379289                    
V  6  11630.081543   1921.554353 -29229.608022      0.004245                    
P  7  23998.621679   7262.589044   9800.844743     30.785926                    
V  7 -11860.293127   2181.972640  27907.589041      0.141003                    
P  8  -2267.840587  22758.234620 -13243.330479     -7.499248                    
V  8 -10221.492171  13681.724086  25533.556159     -0.013682                    
P  9  13139.077767   7955.111504  21603.395628   -315.296842                    
V  9 -13523.591245  24075.053078   -660.120018     -0.039169                    
P 10 -17110.698986  -1849.899785 -20197.721382    -44.625938                    
V 10 -12135.989312 -22765.625050  12042.389537     -0.084181                    
P 11   1750.019979  17117.995261 -20746.174156    -46.181151                    
V 11 -22955.945597  11063.849484   6981.789661      0.105841                    
P 12  -8903.724707 -24812.715806  -4100.818095      9.569725                    
V 12   4065.099676   3447.467133 -31418.635658     -0.052390                    
P 13  12347.858092 -22721.501236  -5910.205820     88.599439                    
V 13   6526.360650  -4250.173840  30800.028748      0.041874                    
P 14  17521.614287   4067.811786 -19553.404774     88.995768                    
V 14  10236.911632  22637.920183  13882.087170      0.051439                    
P 15  -1439.384665 -22615.589240 -13911.369396   -174.653189                    
V 15   9753.379771 -14623.975844  23723.502406      0.025752                    
P 16  -3937.544614  19388.453851  17253.789440   -268.690016                    
V 16 -11025.627571 -19709.673594  19822.607404     -0.055886                    
P 17  18842.969093  -9551.371325 -15656.296859    383.334860                    
V 17 -10049.467002  18102.015915 -22528.289165      0.047952                    
P 18 -25043.728581  -5492.339734   7045.374841    342.934550                    
V 18   8990.822461  -2230.468990  30144.919272      0.025075                    
P 19  19439.427152 -15053.431125 -10213.381434    -48.674295                    
V 19  -5850.201954  11277.182290 -28627.139200      0.050158                    
P 20 -20590.640713 -12056.163879 -12004.027095    525.052043                    
V 20  -7124.602835 -13599.732093  25736.778874     -0.001799                    
P 21   2942.930321  14780.014254 -21156.877078     88.948717                    
V 21 -28548.228829   2032.594508  -2063.510005      0.032918                    
P 22   8799.498205  23535.642864  -8661.804049   -693.810591                    
V 22  -9174.369765  -7308.064019 -28361.424143      0.068774                    
P 23 -18925.414146 -12230.419836 -14113.650285    116.926079                    
V 23  -7520.603344 -16331.396423  24241.658861      0.012046                    
P 24  -6862.380871 -15109.505939 -21034.358501      3.360849                    
V 24  26110.629421  -2260.990690  -6580.353069     -0.004930                    
P 25 -17271.663863 -18496.599644   8261.978671     64.790825                    
V 25  -3294.552585 -10516.400091 -29255.856101      0.077974                    
P 26 -11511.466646  10727.479290  21330.612900     33.576588                    
V 26 -14955.582212 -22823.559002   3660.109433      0.056388                    
P 27 -12078.457462  23368.725539  -1872.193166    -60.985306                    
V 27  -3359.972251    609.217105  32231.010975     -0.076758                    
P 28  15913.776135   1163.286201 -20632.595713    626.348344                    
V 28  10605.187939  25401.332474   9538.653171     -0.052824                    
P 29 -11467.266277  -9204.705909  22079.409671   -280.450118                    
V 29  15869.206862 -23139.180968  -1441.339432     -0.071962                    
P 30  26638.555690   -263.055215  -1470.937755   -372.802138                    
V 30   1811.243961   3428.228608  31001.371317     -0.059904                    
P 31 -23166.426629   7271.131067  11221.881685    -95.394149                    
V 31 -14141.907110  -2615.444315 -26852.198645     -0.023186                    
P 32 -18620.282765  10779.707851 -15370.352403     15.524791                    
V 32   7878.742783 -18256.055165 -22377.667058      0.018325                    
EOF
